COSMOS 2550             
1 48865U 21056A   25316.79577532  .00005159  00000+0  16248-3 0  9990
2 48865  67.1441  34.5623 0008398 270.3796  89.6397 15.33841294245532
CZ-2C R/B               
1 52794U 22058K   25316.65123869  .00045930  00000+0  87369-3 0  9997
2 52794  50.1901 196.7548 0048844  73.5572 287.0755 15.46413621191976
GSLV R/B                
1 54149U 22138AN  25316.22037562  .00006991  00000+0  62046-3 0  9998
2 54149  87.3847 205.6882 0019962 212.9871 147.0116 14.95887927166362
XRISM                   
1 57800U 23137A   25316.69394894  .00011996  00000+0  71608-3 0  9995
2 57800  31.0030 319.4718 0008093 300.3525  59.6313 15.09882717120086
ACS3                    
1 59588U 24077B   25316.83457560  .00036488  00000+0  32566-1 0  9991
2 59588  97.3097 279.0802 0055353  25.3600 335.0259 13.83566323 78009
